NORAD_CAT_ID,OBJECT_NAME,OBJECT_TYPE,EPOCH,MEAN_MOTION,ECCENTRICITY,INCLINATION,RA_OF_ASC_NODE,ARG_OF_PERICENTER,MEAN_ANOMALY,BSTAR,MEAN_MOTION_DOT,MEAN_MOTION_DDOT,TLE_LINE0,TLE_LINE1,TLE_LINE2,SEMIMAJOR_AXIS,PERIOD,APOGEE,PERIGEE,DECAYED
52480.0,STARLINK-3839,PAYLOAD,2022-07-09 16:00:00,15.35319178,0.0001951,53.2174,311.233,35.5234,213.2091,-0.033416,-0.01067373,0.0,0 STARLINK-3839,1 52480U 22049AF  22190.66667824 -.01067373  00000-0 -33416-1 0  9992,2 52480  53.2174 311.2330 0001951  35.5234 213.2091 15.35319178 10242,6838.11,93.792,461.309,458.64,0.0
52480.0,STARLINK-3839,PAYLOAD,2022-07-09 20:00:01,15.34938648,0.0001561999999999,53.2171,310.455,43.4115,46.9089,-0.033768,-0.01065565,0.0,0 STARLINK-3839,1 52480U 22049AF  22190.83334491 -.01065565  00000-0 -33768-1 0  9993,2 52480  53.2171 310.4550 0001562  43.4115  46.9089 15.34938648  1301,6839.24,93.815,462.173,460.036,0.0
52480.0,STARLINK-3839,PAYLOAD,2022-07-10 14:00:01,15.33229649,0.0001863,53.2172,306.9594,36.0537,238.5876,-0.035674,-0.01065959,0.0,0 STARLINK-3839,1 52480U 22049AF  22191.58334491 -.01065959  00000-0 -35674-1 0  9991,2 52480  53.2172 306.9594 0001863  36.0537 238.5876 15.33229649 10395,6844.321,93.919,467.461,464.911,0.0
52480.0,STARLINK-3839,PAYLOAD,2022-07-10 22:00:00,15.32473215,0.000145,53.2172,305.4084,46.77,268.3078,-0.036733,-0.01071061,0.0,0 STARLINK-3839,1 52480U 22049AF  22191.91667824 -.01071061  00000-0 -36733-1 0  9995,2 52480  53.2172 305.4084 0001450  46.7700 268.3078 15.32473215  1300,6846.573,93.966,469.431,467.445,0.0
52480.0,STARLINK-3839,PAYLOAD,2022-07-11 14:00:01,15.30953382,0.0001954,53.2173,302.313,29.5689,3.6452,-0.038462,-0.01069388,0.0,0 STARLINK-3839,1 52480U 22049AF  22192.58334491 -.01069388  00000-0 -38462-1 0  9990,2 52480  53.2173 302.3130 0001954  29.5689   3.6452 15.30953382  1305,6851.104,94.059,474.307,471.63,0.0
52480.0,STARLINK-3839,PAYLOAD,2022-07-11 22:00:00,15.30192707,0.0001522,53.2173,300.7673,44.3109,26.6032,-0.0393,-0.01067132,0.0,0 STARLINK-3839,1 52480U 22049AF  22192.91667824 -.01067132  00000-0 -39300-1 0  9993,2 52480  53.2173 300.7673 0001522  44.3109  26.6032 15.30192707  1307,6853.374,94.106,476.282,474.196,0.0
52480.0,STARLINK-3839,PAYLOAD,2022-07-12 14:00:01,15.286732,0.0002098,53.2173,297.6828,33.284,110.2903,-0.041156,-0.01066298,0.0,0 STARLINK-3839,1 52480U 22049AF  22193.58334491 -.01066298  00000-0 -41156-1 0  9992,2 52480  53.2173 297.6828 0002098  33.2840 110.2903 15.28673200 10699,6857.915,94.199,481.218,478.341,0.0
52480.0,STARLINK-3839,PAYLOAD,2022-07-12 22:00:00,15.27913687,0.0001904,53.2174,296.1423,38.5367,139.9993,-0.042121,-0.01066047,0.0,0 STARLINK-3839,1 52480U 22049AF  22193.91667824 -.01066047  00000-0 -42121-1 0  9993,2 52480  53.2174 296.1423 0001904  38.5367 139.9993 15.27913687  1302,6860.187,94.246,483.358,480.746,0.0
52480.0,STARLINK-3839,PAYLOAD,2022-07-13 14:00:01,15.26393526,0.0002209,53.2175,293.0687,30.1545,215.5657,-0.044025,-0.01063886,0.0,0 STARLINK-3839,1 52480U 22049AF  22194.58334491 -.01063886  00000-0 -44025-1 0  9991,2 52480  53.2175 293.0687 0002209  30.1545 215.5657 15.26393526 10846,6864.741,94.34,488.12300000000016,485.09,0.0
52480.0,STARLINK-3839,PAYLOAD,2022-07-13 22:00:00,15.25636346,0.0001568,53.2174,291.5334,46.9984,230.945,-0.04525,-0.01068102,0.0,0 STARLINK-3839,1 52480U 22049AF  22194.91667824 -.01068102  00000-0 -45250-1 0  9994,2 52480  53.2174 291.5334 0001568  46.9984 230.9450 15.25636346  1308,6867.012,94.387,489.954,487.801,0.0
52480.0,STARLINK-3839,PAYLOAD,2022-07-14 14:00:01,15.24116621,0.0001764999999999,53.2175,288.4708,36.376,303.2753,-0.047284,-0.01066307,0.0,0 STARLINK-3839,1 52480U 22049AF  22195.58334491 -.01066307  00000-0 -47284-1 0  9993,2 52480  53.2175 288.4708 0001765  36.3760 303.2753 15.24116621 11009,6871.576,94.481,494.654,492.228,0.0
52480.0,STARLINK-3839,PAYLOAD,2022-07-14 22:00:00,15.23357341,0.0001665999999999,53.2175,286.9406,36.6651,332.4723,-0.048414,-0.01067135,0.0,0 STARLINK-3839,1 52480U 22049AF  22195.91667824 -.01067135  00000-0 -48414-1 0  9995,2 52480  53.2175 286.9406 0001666  36.6651 332.4723 15.23357341  1307,6873.859,94.528,496.87,494.579,0.0
52480.0,STARLINK-3839,PAYLOAD,2022-07-15 14:00:01,15.21838635,0.0001972,53.2176,283.8887,32.8417,32.5272,-0.050651,-0.01067168,0.0,0 STARLINK-3839,1 52480U 22049AF  22196.58334491 -.01067168  00000-0 -50651-1 0  9992,2 52480  53.2176 283.8887 0001972  32.8417  32.5272 15.21838635 11154,6878.432,94.622,501.653,498.94,0.0
52480.0,STARLINK-3839,PAYLOAD,2022-07-15 22:00:00,15.21077555,0.0001903,53.2175,282.3639,34.2631,57.8543,-0.051665,-0.01064535,0.0,0 STARLINK-3839,1 52480U 22049AF  22196.91667824 -.01064535  00000-0 -51665-1 0  9999,2 52480  53.2175 282.3639 0001903  34.2631  57.8543 15.21077555  1303,6880.726,94.67,503.9,501.282,0.0
52480.0,STARLINK-3839,PAYLOAD,2022-07-16 14:00:01,15.19558381,0.0002254,53.2176,279.3228,31.0122,111.8608,-0.053985,-0.0106393,0.0,0 STARLINK-3839,1 52480U 22049AF  22197.58334491 -.01063930  00000-0 -53985-1 0  9999,2 52480  53.2176 279.3228 0002254  31.0122 111.8608 15.19558381 11306,6885.311,94.764,508.728,505.624,0.0
52480.0,STARLINK-3839,PAYLOAD,2022-07-16 22:00:00,15.18799057,0.0001671,53.2175,277.8031,49.7182,117.165,-0.05521,-0.0107757,0.0,0 STARLINK-3839,1 52480U 22049AF  22197.91667824 -.01077570  00000-0 -55210-1 0  9993,2 52480  53.2175 277.8031 0001671  49.7182 117.1650 15.18799057  1305,6887.606,94.812,510.622,508.32,0.0
52480.0,STARLINK-3839,PAYLOAD,2022-07-17 14:00:01,15.172783,0.0001919,53.2175,274.7727,42.0197,170.1435,-0.057497,-0.01074165,0.0,0 STARLINK-3839,1 52480U 22049AF  22198.58334491 -.01074165  00000-0 -57497-1 0  9994,2 52480  53.2175 274.7727 0001919  42.0197 170.1435 15.17278300 11459,6892.206999999999,94.907,515.395,512.75,0.0
52480.0,STARLINK-3839,PAYLOAD,2022-07-17 22:00:00,15.16521145,0.000179,53.2175,273.2582,43.2199,190.2148,-0.059016,-0.01078424,0.0,0 STARLINK-3839,1 52480U 22049AF  22198.91667824 -.01078424  00000-0 -59016-1 0  9991,2 52480  53.2175 273.2582 0001790  43.2199 190.2148 15.16521145  1308,6894.501,94.954,517.6,515.132,0.0
52480.0,STARLINK-3839,PAYLOAD,2022-07-18 14:00:01,15.14999501,0.0001869,53.2175,270.2386,39.6054,233.6336,-0.061325,-0.01073318,0.0,0 STARLINK-3839,1 52480U 22049AF  22199.58334491 -.01073318  00000-0 -61325-1 0  9999,2 52480  53.2175 270.2386 0001869  39.6054 233.6336 15.14999501  1307,6899.1169999999975,95.05,522.2719999999998,519.693,0.0
52480.0,STARLINK-3839,PAYLOAD,2022-07-18 16:00:00,15.14809288,0.0001839,53.2173,269.8615,32.7113,335.2468,-0.061614,-0.01072605,0.0,0 STARLINK-3839,1 52480U 22049AF  22199.66667824 -.01072605  00000-0 -61614-1 0  9996,2 52480  53.2173 269.8615 0001839  32.7113 335.2468 15.14809288 11624,6899.695,95.061,522.828,520.2909999999998,0.0
52480.0,STARLINK-3839,PAYLOAD,2022-07-18 22:00:00,15.14242639,0.0001744,53.2175,268.7293,39.2792,252.4933,-0.062987,-0.01078522,0.0,0 STARLINK-3839,1 52480U 22049AF  22199.91667824 -.01078522  00000-0 -62987-1 0  9992,2 52480  53.2175 268.7293 0001744  39.2792 252.4933 15.14242639  1308,6901.416,95.097,524.484,522.077,0.0
52480.0,STARLINK-3839,PAYLOAD,2022-07-19 14:00:01,15.1272106,0.0001891,53.2175,265.7204,34.1496,291.9512,-0.0654169999999999,-0.0107345,0.0,0 STARLINK-3839,1 52480U 22049AF  22200.58334491 -.01073450  00000-0 -65417-1 0  9995,2 52480  53.2175 265.7204 0001891  34.1496 291.9512 15.12721060 11765,6906.043000000002,95.193,529.214,526.602,0.0
52480.0,STARLINK-3839,PAYLOAD,2022-07-19 22:00:00,15.11963236,0.0001730999999999,53.2175,264.2163,36.9692,304.9276,-0.067077,-0.01077206,0.0,0 STARLINK-3839,1 52480U 22049AF  22200.91667824 -.01077206  00000-0 -67077-1 0  9998,2 52480  53.2175 264.2163 0001731  36.9692 304.9276 15.11963236  1307,6908.35,95.24,531.411,529.02,0.0
52480.0,STARLINK-3839,PAYLOAD,2022-07-20 14:00:01,15.1044232,0.0001686999999999,53.2175,261.2179,38.2589,332.49,-0.069729,-0.0107357,0.0,0 STARLINK-3839,1 52480U 22049AF  22201.58334491 -.01073570  00000-0 -69729-1 0  9999,2 52480  53.2175 261.2179 0001687  38.2589 332.4900 15.10442320  1306,6912.986999999999,95.336,536.018,533.686,0.0
52480.0,STARLINK-3839,PAYLOAD,2022-07-20 22:00:01,15.09569739,0.000162,53.2175,259.7183,35.7949,348.096,-0.049248,-0.00742605,0.0,0 STARLINK-3839,1 52480U 22049AF  22201.91668981 -.00742605  00000-0 -49248-1 0  9995,2 52480  53.2175 259.7183 0001620  35.7949 348.0960 15.09569739  1303,6915.651,95.391,538.636,536.395,0.0
52480.0,STARLINK-3839,PAYLOAD,2022-07-21 06:00:00,15.08923625,0.0001776999999999,53.2176,258.2217,35.6204,0.3715,-0.0087534999999999,-0.00137273,0.0,0 STARLINK-3839,1 52480U 22049AF  22202.25001157 -.00137273  00000-0 -87535-2 0  9990,2 52480  53.2176 258.2217 0001777  35.6204   0.3715 15.08923625 12015,6917.625,95.432,540.719,538.261,0.0
52480.0,STARLINK-3839,PAYLOAD,2022-07-21 14:00:01,15.0888602,0.0001367,53.2173,256.7232,17.4904,30.0371,0.0082115,0.00133043,0.0,0 STARLINK-3839,1 52480U 22049AF  22202.58335648  .00133043  00000-0  82115-2 0  9999,2 52480  53.2173 256.7232 0001367  17.4904  30.0371 15.08886020  1307,6917.74,95.435,540.55,538.659,0.0
52480.0,STARLINK-3839,PAYLOAD,2022-07-21 22:00:00,15.08859095,0.0001217999999999,53.2172,255.2192,17.2551,41.8534,2.4421e-05,1.01e-06,0.0,0 STARLINK-3839,1 52480U 22049AF  22202.91667824  .00000101  00000-0  24421-4 0  9996,2 52480  53.2172 255.2192 0001218  17.2551  41.8534 15.08859095  1309,6917.821999999999,95.436,540.53,538.844,0.0
52480.0,STARLINK-3839,PAYLOAD,2022-07-22 06:00:00,15.08875924,0.0001259,53.2173,253.7232,23.0904,47.6337,-0.0038472,-0.00061056,0.0,0 STARLINK-3839,1 52480U 22049AF  22203.25001157 -.00061056  00000-0 -38472-2 0  9992,2 52480  53.2173 253.7232 0001259  23.0904  47.6337 15.08875924  1304,6917.771,95.435,540.507,538.765,0.0
